{
  "links" : {
    "next" : "https://api.nasa.gov/neo/rest/v1/feed?start_date=2000-04-23&end_date=2000-04-23&detailed=true&api_key=t0TVs3DtDT2H8Oy2Zy8m2eVrNsAVKAexjcZXUckd",
    "prev" : "https://api.nasa.gov/neo/rest/v1/feed?start_date=2000-04-21&end_date=2000-04-21&detailed=true&api_key=t0TVs3DtDT2H8Oy2Zy8m2eVrNsAVKAexjcZXUckd",
    "self" : "https://api.nasa.gov/neo/rest/v1/feed?start_date=2000-04-22&end_date=2000-04-22&detailed=true&api_key=t0TVs3DtDT2H8Oy2Zy8m2eVrNsAVKAexjcZXUckd"
  },
  "element_count" : 7,
  "near_earth_objects" : {
    "2000-04-22" : [ {
      "links" : {
        "self" : "https://api.nasa.gov/neo/rest/v1/neo/3092258?api_key=t0TVs3DtDT2H8Oy2Zy8m2eVrNsAVKAexjcZXUckd"
      },
      "neo_reference_id" : "3092258",
      "name" : "(2000 GT127)",
      "nasa_jpl_url" : "http://ssd.jpl.nasa.gov/sbdb.cgi?sstr=3092258",
      "absolute_magnitude_h" : 22.514,
      "estimated_diameter" : {
        "kilometers" : {
          "estimated_diameter_min" : 0.0835131715,
          "estimated_diameter_max" : 0.1867411284
        },
        "meters" : {
          "estimated_diameter_min" : 83.5131714658,
          "estimated_diameter_max" : 186.741128414
        },
        "miles" : {
          "estimated_diameter_min" : 0.0518926629,
          "estimated_diameter_max" : 0.1160355217
        },
        "feet" : {
          "estimated_diameter_min" : 273.9933534717,
          "estimated_diameter_max" : 612.6677637459
        }
      },
      "is_potentially_hazardous_asteroid" : false,
      "close_approach_data" : [ {
        "close_approach_date" : "2000-04-22",
        "epoch_date_close_approach" : 956386800000,
        "relative_velocity" : {
          "kilometers_per_second" : "7.8827739845",
          "kilometers_per_hour" : "28377.9863443248",
          "miles_per_hour" : "17632.9771260056"
        },
        "miss_distance" : {
          "astronomical" : "0.3124148197",
          "lunar" : "121.5293655396",
          "kilometers" : "46736592",
          "miles" : "29040772"
        },
        "orbiting_body" : "Earth"
      } ],
      "orbital_data" : {
        "orbit_id" : "12",
        "orbit_determination_date" : "2017-04-06 09:17:02",
        "orbit_uncertainty" : "9",
        "minimum_orbit_intersection" : ".297082",
        "jupiter_tisserand_invariant" : "3.281",
        "epoch_osculation" : "2451643.5",
        "eccentricity" : ".4787394003556109",
        "semi_major_axis" : "2.463825702773474",
        "inclination" : "14.6391931511905",
        "ascending_node_longitude" : "17.08528724881171",
        "orbital_period" : "1412.581125746829",
        "perihelion_distance" : "1.284295263246959",
        "perihelion_argument" : "206.9070061884133",
        "aphelion_distance" : "3.643356142299988",
        "perihelion_time" : "2451675.854678038772",
        "mean_anomaly" : "351.7543255522405",
        "mean_motion" : ".2548526193918021",
        "equinox" : "J2000"
      }
    }, {
      "links" : {
        "self" : "https://api.nasa.gov/neo/rest/v1/neo/2153002?api_key=t0TVs3DtDT2H8Oy2Zy8m2eVrNsAVKAexjcZXUckd"
      },
      "neo_reference_id" : "2153002",
      "name" : "153002 (2000 JG5)",
      "nasa_jpl_url" : "http://ssd.jpl.nasa.gov/sbdb.cgi?sstr=2153002",
      "absolute_magnitude_h" : 18.2,
      "estimated_diameter" : {
        "kilometers" : {
          "estimated_diameter_min" : 0.6089126221,
          "estimated_diameter_max" : 1.3615700154
        },
        "meters" : {
          "estimated_diameter_min" : 608.9126221057,
          "estimated_diameter_max" : 1361.5700153859
        },
        "miles" : {
          "estimated_diameter_min" : 0.3783606449,
          "estimated_diameter_max" : 0.846040122
        },
        "feet" : {
          "estimated_diameter_min" : 1997.7448871092,
          "estimated_diameter_max" : 4467.0933692788
        }
      },
      "is_potentially_hazardous_asteroid" : true,
      "close_approach_data" : [ {
        "close_approach_date" : "2000-04-22",
        "epoch_date_close_approach" : 956386800000,
        "relative_velocity" : {
          "kilometers_per_second" : "28.4318467033",
          "kilometers_per_hour" : "102354.648132046",
          "miles_per_hour" : "63599.1978907149"
        },
        "miss_distance" : {
          "astronomical" : "0.0718289162",
          "lunar" : "27.9414482117",
          "kilometers" : "10745453",
          "miles" : "6676915"
        },
        "orbiting_body" : "Earth"
      } ],
      "orbital_data" : {
        "orbit_id" : "68",
        "orbit_determination_date" : "2017-05-18 06:21:13",
        "orbit_uncertainty" : "0",
        "minimum_orbit_intersection" : ".0275536",
        "jupiter_tisserand_invariant" : "4.406",
        "epoch_osculation" : "2458000.5",
        "eccentricity" : ".7957346160239452",
        "semi_major_axis" : "1.340600426925048",
        "inclination" : "31.46243669280093",
        "ascending_node_longitude" : "213.1523927556377",
        "orbital_period" : "566.9535211800933",
        "perihelion_distance" : ".2738382609643079",
        "perihelion_argument" : "233.3528983472794",
        "aphelion_distance" : "2.407362592885788",
        "perihelion_time" : "2457848.303488870062",
        "mean_anomaly" : "96.64062742344868",
        "mean_motion" : ".6349726856809584",
        "equinox" : "J2000"
      }
    }, {
      "links" : {
        "self" : "https://api.nasa.gov/neo/rest/v1/neo/2224926?api_key=t0TVs3DtDT2H8Oy2Zy8m2eVrNsAVKAexjcZXUckd"
      },
      "neo_reference_id" : "2224926",
      "name" : "224926 (2007 DA41)",
      "nasa_jpl_url" : "http://ssd.jpl.nasa.gov/sbdb.cgi?sstr=2224926",
      "absolute_magnitude_h" : 17.5,
      "estimated_diameter" : {
        "kilometers" : {
          "estimated_diameter_min" : 0.8405334021,
          "estimated_diameter_max" : 1.8794898244
        },
        "meters" : {
          "estimated_diameter_min" : 840.5334020728,
          "estimated_diameter_max" : 1879.4898243938
        },
        "miles" : {
          "estimated_diameter_min" : 0.5222830806,
          "estimated_diameter_max" : 1.1678604717
        },
        "feet" : {
          "estimated_diameter_min" : 2757.6556068564,
          "estimated_diameter_max" : 6166.3053954643
        }
      },
      "is_potentially_hazardous_asteroid" : false,
      "close_approach_data" : [ {
        "close_approach_date" : "2000-04-22",
        "epoch_date_close_approach" : 956386800000,
        "relative_velocity" : {
          "kilometers_per_second" : "20.9243176401",
          "kilometers_per_hour" : "75327.5435043942",
          "miles_per_hour" : "46805.6061291609"
        },
        "miss_distance" : {
          "astronomical" : "0.1871830526",
          "lunar" : "72.8142089844",
          "kilometers" : "28002186",
          "miles" : "17399752"
        },
        "orbiting_body" : "Earth"
      } ],
      "orbital_data" : {
        "orbit_id" : "84",
        "orbit_determination_date" : "2017-04-06 09:25:13",
        "orbit_uncertainty" : "0",
        "minimum_orbit_intersection" : ".168521",
        "jupiter_tisserand_invariant" : "4.384",
        "epoch_osculation" : "2458000.5",
        "eccentricity" : ".4398372056272534",
        "semi_major_axis" : "1.461168039706349",
        "inclination" : "30.22453466128864",
        "ascending_node_longitude" : "225.9298406289472",
        "orbital_period" : "645.1321320056683",
        "perihelion_distance" : ".8184919721700565",
        "perihelion_argument" : "20.23159517942574",
        "aphelion_distance" : "2.103844107242641",
        "perihelion_time" : "2458128.142043886402",
        "mean_anomaly" : "288.77252035758",
        "mean_motion" : ".5580252201681329",
        "equinox" : "J2000"
      }
    } ]
  }
}